[{"OBJECT_NAME":"UK-DMC 2","OBJECT_ID":"2009-041C","EPOCH":"2026-03-09T23:23:59.777088","MEAN_MOTION":14.75853536,"ECCENTRICITY":0.00010983,"INCLINATION":97.8657,"RA_OF_ASC_NODE":206.4708,"ARG_OF_PERICENTER":90.2478,"MEAN_ANOMALY":269.8858,"EPHEMERIS_TYPE":0,"CLASSIFICATION_TYPE":"U","NORAD_CAT_ID":35683,"ELEMENT_SET_NO":999,"REV_AT_EPOCH":89193,"BSTAR":0.00020221401,"MEAN_MOTION_DOT":1.338e-5,"MEAN_MOTION_DDOT":0},{"OBJECT_NAME":"CZ-6A DEB","OBJECT_ID":"2022-151WE","EPOCH":"2026-03-09T02:33:05.538240","MEAN_MOTION":14.55661756,"ECCENTRICITY":0.00899926,"INCLINATION":98.6272,"RA_OF_ASC_NODE":118.6853,"ARG_OF_PERICENTER":261.6542,"MEAN_ANOMALY":97.4444,"EPHEMERIS_TYPE":0,"CLASSIFICATION_TYPE":"U","NORAD_CAT_ID":55213,"ELEMENT_SET_NO":999,"REV_AT_EPOCH":16956,"BSTAR":0.0018489114,"MEAN_MOTION_DOT":8.484e-5,"MEAN_MOTION_DDOT":0}]
